CCSDS_OMM_VERS = 2.0
CREATION_DATE  = 
ORIGINATOR     = 

OBJECT_NAME    = FLOCK 4H-33
OBJECT_ID      = 2025-276BY
CENTER_NAME    = EARTH
REF_FRAME      = TEME
TIME_SYSTEM    = UTC
MEAN_ELEMENT_THEORY = SGP/SGP4

EPOCH          = 2025-12-22T02:09:52.816032
MEAN_MOTION    = 15.18273812
ECCENTRICITY   = .0002573
INCLINATION    = 97.4427
RA_OF_ASC_NODE = 67.7260
ARG_OF_PERICENTER = 162.7594
MEAN_ANOMALY   = 197.3728

EPHEMERIS_TYPE = 0
CLASSIFICATION_TYPE = U
NORAD_CAT_ID   = 66736
ELEMENT_SET_NO = 999
REV_AT_EPOCH   = 354
BSTAR          = .62404E-3
MEAN_MOTION_DOT = .12734E-3
MEAN_MOTION_DDOT = 0

CCSDS_OMM_VERS = 2.0
CREATION_DATE  = 
ORIGINATOR     = 

OBJECT_NAME    = FLOCK 4H-34
OBJECT_ID      = 2025-276BZ
CENTER_NAME    = EARTH
REF_FRAME      = TEME
TIME_SYSTEM    = UTC
MEAN_ELEMENT_THEORY = SGP/SGP4

EPOCH          = 2025-12-22T02:12:12.060864
MEAN_MOTION    = 15.18142642
ECCENTRICITY   = .0002339
INCLINATION    = 97.4442
RA_OF_ASC_NODE = 67.7291
ARG_OF_PERICENTER = 168.7176
MEAN_ANOMALY   = 191.4110

EPHEMERIS_TYPE = 0
CLASSIFICATION_TYPE = U
NORAD_CAT_ID   = 66737
ELEMENT_SET_NO = 999
REV_AT_EPOCH   = 279
BSTAR          = .52467E-3
MEAN_MOTION_DOT = .10652E-3
MEAN_MOTION_DDOT = 0

CCSDS_OMM_VERS = 2.0
CREATION_DATE  = 
ORIGINATOR     = 

OBJECT_NAME    = FLOCK 4H-35
OBJECT_ID      = 2025-276CA
CENTER_NAME    = EARTH
REF_FRAME      = TEME
TIME_SYSTEM    = UTC
MEAN_ELEMENT_THEORY = SGP/SGP4

EPOCH          = 2025-12-22T02:09:55.235232
MEAN_MOTION    = 15.18231333
ECCENTRICITY   = .00023
INCLINATION    = 97.4406
RA_OF_ASC_NODE = 67.7183
ARG_OF_PERICENTER = 151.7865
MEAN_ANOMALY   = 208.3494

EPHEMERIS_TYPE = 0
CLASSIFICATION_TYPE = U
NORAD_CAT_ID   = 66738
ELEMENT_SET_NO = 999
REV_AT_EPOCH   = 283
BSTAR          = .43097E-3
MEAN_MOTION_DOT = .8758E-4
MEAN_MOTION_DDOT = 0

CCSDS_OMM_VERS = 2.0
CREATION_DATE  = 
ORIGINATOR     = 

OBJECT_NAME    = FLOCK 4H-36
OBJECT_ID      = 2025-276CB
CENTER_NAME    = EARTH
REF_FRAME      = TEME
TIME_SYSTEM    = UTC
MEAN_ELEMENT_THEORY = SGP/SGP4

EPOCH          = 2025-12-22T03:50:28.734720
MEAN_MOTION    = 15.17982730
ECCENTRICITY   = .0002489
INCLINATION    = 97.4453
RA_OF_ASC_NODE = 67.7939
ARG_OF_PERICENTER = 185.8557
MEAN_ANOMALY   = 174.2648

EPHEMERIS_TYPE = 0
CLASSIFICATION_TYPE = U
NORAD_CAT_ID   = 66739
ELEMENT_SET_NO = 999
REV_AT_EPOCH   = 355
BSTAR          = .58217E-3
MEAN_MOTION_DOT = .11775E-3
MEAN_MOTION_DDOT = 0

CCSDS_OMM_VERS = 2.0
CREATION_DATE  = 
ORIGINATOR     = 

OBJECT_NAME    = TRANSPORTER-15 CC
OBJECT_ID      = 2025-276CC
CENTER_NAME    = EARTH
REF_FRAME      = TEME
TIME_SYSTEM    = UTC
MEAN_ELEMENT_THEORY = SGP/SGP4

EPOCH          = 2025-12-22T03:57:09.933120
MEAN_MOTION    = 15.17699424
ECCENTRICITY   = .0002099
INCLINATION    = 97.4415
RA_OF_ASC_NODE = 67.7791
ARG_OF_PERICENTER = 242.3729
MEAN_ANOMALY   = 117.7291

EPHEMERIS_TYPE = 0
CLASSIFICATION_TYPE = U
NORAD_CAT_ID   = 66740
ELEMENT_SET_NO = 999
REV_AT_EPOCH   = 355
BSTAR          = .52781E-3
MEAN_MOTION_DOT = .1058E-3
MEAN_MOTION_DDOT = 0

CCSDS_OMM_VERS = 2.0
CREATION_DATE  = 
ORIGINATOR     = 

OBJECT_NAME    = TRANSPORTER-15 CD
OBJECT_ID      = 2025-276CD
CENTER_NAME    = EARTH
REF_FRAME      = TEME
TIME_SYSTEM    = UTC
MEAN_ELEMENT_THEORY = SGP/SGP4

EPOCH          = 2025-12-21T20:03:53.371296
MEAN_MOTION    = 15.17530287
ECCENTRICITY   = .0001537
INCLINATION    = 97.4414
RA_OF_ASC_NODE = 67.4463
ARG_OF_PERICENTER = 203.7116
MEAN_ANOMALY   = 156.4047

EPHEMERIS_TYPE = 0
CLASSIFICATION_TYPE = U
NORAD_CAT_ID   = 66741
ELEMENT_SET_NO = 999
REV_AT_EPOCH   = 350
BSTAR          = .13951E-3
MEAN_MOTION_DOT = .2732E-4
MEAN_MOTION_DDOT = 0

CCSDS_OMM_VERS = 2.0
CREATION_DATE  = 
ORIGINATOR     = 

OBJECT_NAME    = TRANSPORTER-15 CE
OBJECT_ID      = 2025-276CE
CENTER_NAME    = EARTH
REF_FRAME      = TEME
TIME_SYSTEM    = UTC
MEAN_ELEMENT_THEORY = SGP/SGP4

EPOCH          = 2025-12-22T03:56:21.329664
MEAN_MOTION    = 15.17694052
ECCENTRICITY   = .0001502
INCLINATION    = 97.4405
RA_OF_ASC_NODE = 67.7688
ARG_OF_PERICENTER = 192.9661
MEAN_ANOMALY   = 167.1535

EPHEMERIS_TYPE = 0
CLASSIFICATION_TYPE = U
NORAD_CAT_ID   = 66742
ELEMENT_SET_NO = 999
REV_AT_EPOCH   = 355
BSTAR          = .52706E-3
MEAN_MOTION_DOT = .10564E-3
MEAN_MOTION_DDOT = 0

CCSDS_OMM_VERS = 2.0
CREATION_DATE  = 
ORIGINATOR     = 

OBJECT_NAME    = TRANSPORTER-15 CF
OBJECT_ID      = 2025-276CF
CENTER_NAME    = EARTH
REF_FRAME      = TEME
TIME_SYSTEM    = UTC
MEAN_ELEMENT_THEORY = SGP/SGP4

EPOCH          = 2025-12-22T00:51:27.085824
MEAN_MOTION    = 15.17507434
ECCENTRICITY   = .0000377
INCLINATION    = 97.4402
RA_OF_ASC_NODE = 67.6356
ARG_OF_PERICENTER = 225.8879
MEAN_ANOMALY   = 134.2324

EPHEMERIS_TYPE = 0
CLASSIFICATION_TYPE = U
NORAD_CAT_ID   = 66743
ELEMENT_SET_NO = 999
REV_AT_EPOCH   = 353
BSTAR          = .8087E-3
MEAN_MOTION_DOT = .16169E-3
MEAN_MOTION_DDOT = 0

CCSDS_OMM_VERS = 2.0
CREATION_DATE  = 
ORIGINATOR     = 

OBJECT_NAME    = TRANSPORTER-15 CG
OBJECT_ID      = 2025-276CG
CENTER_NAME    = EARTH
REF_FRAME      = TEME
TIME_SYSTEM    = UTC
MEAN_ELEMENT_THEORY = SGP/SGP4

EPOCH          = 2025-12-22T04:02:40.788096
MEAN_MOTION    = 15.19150892
ECCENTRICITY   = .0007048
INCLINATION    = 97.4380
RA_OF_ASC_NODE = 67.7711
ARG_OF_PERICENTER = 218.9371
MEAN_ANOMALY   = 141.1356

EPHEMERIS_TYPE = 0
CLASSIFICATION_TYPE = U
NORAD_CAT_ID   = 66744
ELEMENT_SET_NO = 999
REV_AT_EPOCH   = 355
BSTAR          = .40377E-1
MEAN_MOTION_DOT = .916134E-2
MEAN_MOTION_DDOT = 0

CCSDS_OMM_VERS = 2.0
CREATION_DATE  = 
ORIGINATOR     = 

OBJECT_NAME    = TRANSPORTER-15 CH
OBJECT_ID      = 2025-276CH
CENTER_NAME    = EARTH
REF_FRAME      = TEME
TIME_SYSTEM    = UTC
MEAN_ELEMENT_THEORY = SGP/SGP4

EPOCH          = 2025-12-22T04:01:41.407104
MEAN_MOTION    = 15.17417997
ECCENTRICITY   = .0001397
INCLINATION    = 97.4416
RA_OF_ASC_NODE = 67.7731
ARG_OF_PERICENTER = 244.9752
MEAN_ANOMALY   = 115.1337

EPHEMERIS_TYPE = 0
CLASSIFICATION_TYPE = U
NORAD_CAT_ID   = 66745
ELEMENT_SET_NO = 999
REV_AT_EPOCH   = 355
BSTAR          = .19462E-3
MEAN_MOTION_DOT = .3825E-4
MEAN_MOTION_DDOT = 0

CCSDS_OMM_VERS = 2.0
CREATION_DATE  = 
ORIGINATOR     = 

OBJECT_NAME    = TRANSPORTER-15 CJ
OBJECT_ID      = 2025-276CJ
CENTER_NAME    = EARTH
REF_FRAME      = TEME
TIME_SYSTEM    = UTC
MEAN_ELEMENT_THEORY = SGP/SGP4

EPOCH          = 2025-12-21T20:06:21.995712
MEAN_MOTION    = 15.17459073
ECCENTRICITY   = .0002293
INCLINATION    = 97.4414
RA_OF_ASC_NODE = 67.4453
ARG_OF_PERICENTER = 246.6122
MEAN_ANOMALY   = 113.4870

EPHEMERIS_TYPE = 0
CLASSIFICATION_TYPE = U
NORAD_CAT_ID   = 66746
ELEMENT_SET_NO = 999
REV_AT_EPOCH   = 350
BSTAR          = .71493E-3
MEAN_MOTION_DOT = .14264E-3
MEAN_MOTION_DDOT = 0

CCSDS_OMM_VERS = 2.0
CREATION_DATE  = 
ORIGINATOR     = 

OBJECT_NAME    = W-SERIES 5
OBJECT_ID      = 2025-276CK
CENTER_NAME    = EARTH
REF_FRAME      = TEME
TIME_SYSTEM    = UTC
MEAN_ELEMENT_THEORY = SGP/SGP4

EPOCH          = 2025-12-22T04:00:01.998720
MEAN_MOTION    = 15.17517656
ECCENTRICITY   = .0001287
INCLINATION    = 97.4412
RA_OF_ASC_NODE = 67.7727
ARG_OF_PERICENTER = 213.9433
MEAN_ANOMALY   = 149.3474

EPHEMERIS_TYPE = 0
CLASSIFICATION_TYPE = U
NORAD_CAT_ID   = 66747
ELEMENT_SET_NO = 999
REV_AT_EPOCH   = 130
BSTAR          = .20139E-2
MEAN_MOTION_DOT = .40511E-3
MEAN_MOTION_DDOT = 0

