FLOCK 4H-33             
1 66736U 25276BY  25356.09019463  .00012734  00000+0  62404-3 0  9998
2 66736  97.4427  67.7260 0002573 162.7594 197.3728 15.18273812  3549
FLOCK 4H-34             
1 66737U 25276BZ  25356.09180626  .00010652  00000+0  52467-3 0  9994
2 66737  97.4442  67.7291 0002339 168.7176 191.4110 15.18142642  2795
FLOCK 4H-35             
1 66738U 25276CA  25356.09022263  .00008758  00000+0  43097-3 0  9990
2 66738  97.4406  67.7183 0002300 151.7865 208.3494 15.18231333  2835
FLOCK 4H-36             
1 66739U 25276CB  25356.16005480  .00011775  00000+0  58217-3 0  9994
2 66739  97.4453  67.7939 0002489 185.8557 174.2648 15.17982730  3556
TRANSPORTER-15 CC       
1 66740U 25276CC  25356.16469830  .00010580  00000+0  52781-3 0  9992
2 66740  97.4415  67.7791 0002099 242.3729 117.7291 15.17699424  3550
TRANSPORTER-15 CD       
1 66741U 25276CD  25355.83603439  .00002732  00000+0  13951-3 0  9997
2 66741  97.4414  67.4463 0001537 203.7116 156.4047 15.17530287  3505
TRANSPORTER-15 CE       
1 66742U 25276CE  25356.16413576  .00010564  00000+0  52706-3 0  9999
2 66742  97.4405  67.7688 0001502 192.9661 167.1535 15.17694052  3551
TRANSPORTER-15 CF       
1 66743U 25276CF  25356.03573016  .00016169  00000+0  80870-3 0  9992
2 66743  97.4402  67.6356 0000377 225.8879 134.2324 15.17507434  3532
TRANSPORTER-15 CG       
1 66744U 25276CG  25356.16852764  .00916134  00000+0  40377-1 0  9994
2 66744  97.4380  67.7711 0007048 218.9371 141.1356 15.19150892  3554
TRANSPORTER-15 CH       
1 66745U 25276CH  25356.16784036  .00003825  00000+0  19462-3 0  9998
2 66745  97.4416  67.7731 0001397 244.9752 115.1337 15.17417997  3550
TRANSPORTER-15 CJ       
1 66746U 25276CJ  25355.83775458  .00014264  00000+0  71493-3 0  9991
2 66746  97.4414  67.4453 0002293 246.6122 113.4870 15.17459073  3502
W-SERIES 5              
1 66747U 25276CK  25356.16668980  .00040511  00000+0  20139-2 0  9994
2 66747  97.4412  67.7727 0001287 213.9433 149.3474 15.17517656  1308
